{"type": "FeatureCollection", "features": [ {"type": "Feature", "properties": {"norad_id": 41556, "name": "ZIYUAN 3-02 (ZY 3-02)", "group": "resource", "lat": 67.51645921451758, "lon": -92.95336115557893, "alt_km": 497.7701180517315, "timestamp": "2025-12-20T16:47:35.948748+00:00", "meta": {"OBJECT_NAME": "ZIYUAN 3-02 (ZY 3-02)", "OBJECT_ID": "2016-033A", "EPOCH": "2025-12-20T13:08:51.413856", "MEAN_MOTION": 15.21158057, "ECCENTRICITY": 0.0011058, "INCLINATION": 97.4039, "RA_OF_ASC_NODE": 68.5852, "ARG_OF_PERICENTER": 216.8995, "MEAN_ANOMALY": 143.148, "EPHEMERIS_TYPE": 0, "CLASSIFICATION_TYPE": "U", "NORAD_CAT_ID": 41556, "ELEMENT_SET_NO": 999, "REV_AT_EPOCH": 53082, "BSTAR": 0.00022851, "MEAN_MOTION_DOT": 5.029e-05, "MEAN_MOTION_DDOT": 0}, "tle": {"line1": "1 41556U 16033A   25354.54781729  .00005029  00000+0  22851-3 0  9992", "line2": "2 41556  97.4039  68.5852 0011058 216.8995 143.1480 15.21158057530828"}}, "geometry": {"type": "Point", "coordinates": [-92.95336115557893, 67.51645921451758]}}, {"type": "Feature", "properties": {"norad_id": 41599, "name": "CARTOSAT-2C", "group": "resource", "lat": -4.683335655464828, "lon": 52.4852043898704, "alt_km": 506.3782406455757, "timestamp": "2025-12-20T16:47:35.948759+00:00", "meta": {"OBJECT_NAME": "CARTOSAT-2C", "OBJECT_ID": "2016-040A", "EPOCH": "2025-12-20T12:04:17.851296", "MEAN_MOTION": 15.19184684, "ECCENTRICITY": 0.001104, "INCLINATION": 97.4762, "RA_OF_ASC_NODE": 51.6741, "ARG_OF_PERICENTER": 38.7653, "MEAN_ANOMALY": 321.4371, "EPHEMERIS_TYPE": 0, "CLASSIFICATION_TYPE": "U", "NORAD_CAT_ID": 41599, "ELEMENT_SET_NO": 999, "REV_AT_EPOCH": 52658, "BSTAR": 0.00030276, "MEAN_MOTION_DOT": 6.311e-05, "MEAN_MOTION_DDOT": 0}, "tle": {"line1": "1 41599U 16040A   25354.50298439  .00006311  00000+0  30276-3 0  9999", "line2": "2 41599  97.4762  51.6741 0011040  38.7653 321.4371 15.19184684526581"}}, "geometry": {"type": "Point", "coordinates": [52.4852043898704, -4.683335655464828]}}, {"type": "Feature", "properties": {"norad_id": 41601, "name": "SKYSAT-C1", "group": "resource", "lat": 73.63333882858677, "lon": 6.603973136302473, "alt_km": 460.6417611218494, "timestamp": "2025-12-20T16:47:35.948769+00:00", "meta": {"OBJECT_NAME": "SKYSAT-C1", "OBJECT_ID": "2016-040C", "EPOCH": "2025-12-19T13:49:47.529120", "MEAN_MOTION": 15.32708118, "ECCENTRICITY": 0.000158, "INCLINATION": 96.9813, "RA_OF_ASC_NODE": 30.2048, "ARG_OF_PERICENTER": 351.0695, "MEAN_ANOMALY": 9.052, "EPHEMERIS_TYPE": 0, "CLASSIFICATION_TYPE": "U", "NORAD_CAT_ID": 41601, "ELEMENT_SET_NO": 999, "REV_AT_EPOCH": 53032, "BSTAR": 0.00021842, "MEAN_MOTION_DOT": 6.827e-05, "MEAN_MOTION_DDOT": 0}, "tle": {"line1": "1 41601U 16040C   25353.57624455  .00006827  00000+0  21842-3 0  9991", "line2": "2 41601  96.9813  30.2048 0001580 351.0695   9.0520 15.32708118530325"}}, "geometry": {"type": "Point", "coordinates": [6.603973136302473, 73.63333882858677]}}, {"type": "Feature", "properties": {"norad_id": 41603, "name": "LAPAN-A3", "group": "resource", "lat": -8.133142697544839, "lon": 170.93961395407848, "alt_km": 477.55515726464546, "timestamp": "2025-12-20T16:47:35.948779+00:00", "meta": {"OBJECT_NAME": "LAPAN-A3", "OBJECT_ID": "2016-040E", "EPOCH": "2025-12-20T12:50:16.518624", "MEAN_MOTION": 15.31609802, "ECCENTRICITY": 0.0008936, "INCLINATION": 97.1424, "RA_OF_ASC_NODE": 351.8076, "ARG_OF_PERICENTER": 302.2124, "MEAN_ANOMALY": 57.8251, "EPHEMERIS_TYPE": 0, "CLASSIFICATION_TYPE": "U", "NORAD_CAT_ID": 41603, "ELEMENT_SET_NO": 999, "REV_AT_EPOCH": 52745, "BSTAR": 9.5273e-05, "MEAN_MOTION_DOT": 2.837e-05, "MEAN_MOTION_DDOT": 0}, "tle": {"line1": "1 41603U 16040E   25354.53491341  .00002837  00000+0  95273-4 0  9993", "line2": "2 41603  97.1424 351.8076 0008936 302.2124  57.8251 15.31609802527459"}}, "geometry": {"type": "Point", "coordinates": [170.93961395407848, -8.133142697544839]}}, {"type": "Feature", "properties": {"norad_id": 41604, "name": "BIROS", "group": "resource", "lat": -79.0194572907621, "lon": 66.22982222224849, "alt_km": 304.15125177107257, "timestamp": "2025-12-20T16:47:35.948789+00:00", "meta": {"OBJECT_NAME": "BIROS", "OBJECT_ID": "2016-040F", "EPOCH": "2025-12-20T02:03:19.975968", "MEAN_MOTION": 15.92485134, "ECCENTRICITY": 0.00035333, "INCLINATION": 97.0689, "RA_OF_ASC_NODE": 25.8273, "ARG_OF_PERICENTER": 132.86, "MEAN_ANOMALY": 227.2973, "EPHEMERIS_TYPE": 0, "CLASSIFICATION_TYPE": "U", "NORAD_CAT_ID": 41604, "ELEMENT_SET_NO": 999, "REV_AT_EPOCH": 52989, "BSTAR": 0.00048137558, "MEAN_MOTION_DOT": 0.00161911, "MEAN_MOTION_DDOT": 1.1712005e-05}, "tle": {"line1": "1 41604U 16040F   25354.08564787  .00161911  11712-4  48138-3 0  9992", "line2": "2 41604  97.0689  25.8273 0003533 132.8600 227.2973 15.92485134529894"}}, "geometry": {"type": "Point", "coordinates": [66.22982222224849, -79.0194572907621]}}, {"type": "Feature", "properties": {"norad_id": 41727, "name": "GAOFEN-3", "group": "resource", "lat": -69.34629650783029, "lon": 23.253078530283645, "alt_km": 758.9863743860878, "timestamp": "2025-12-20T16:47:35.948800+00:00", "meta": {"OBJECT_NAME": "GAOFEN-3", "OBJECT_ID": "2016-049A", "EPOCH": "2025-12-20T12:07:37.767936", "MEAN_MOTION": 14.42216011, "ECCENTRICITY": 0.0001256, "INCLINATION": 98.4031, "RA_OF_ASC_NODE": 359.9734, "ARG_OF_PERICENTER": 56.8484, "MEAN_ANOMALY": 303.2826, "EPHEMERIS_TYPE": 0, "CLASSIFICATION_TYPE": "U", "NORAD_CAT_ID": 41727, "ELEMENT_SET_NO": 999, "REV_AT_EPOCH": 49289, "BSTAR": 6.389e-05, "MEAN_MOTION_DOT": 1.67e-06, "MEAN_MOTION_DDOT": 0}, "tle": {"line1": "1 41727U 16049A   25354.50529824  .00000167  00000+0  63890-4 0  9998", "line2": "2 41727  98.4031 359.9734 0001256  56.8484 303.2826 14.42216011492895"}}, "geometry": {"type": "Point", "coordinates": [23.253078530283645, -69.34629650783029]}}, {"type": "Feature", "properties": {"norad_id": 41771, "name": "SKYSAT-C4", "group": "resource", "lat": -70.85654622659686, "lon": 40.03051156136441, "alt_km": 447.5695392172229, "timestamp": "2025-12-20T16:47:35.948809+00:00", "meta": {"OBJECT_NAME": "SKYSAT-C4", "OBJECT_ID": "2016-058B", "EPOCH": "2025-12-20T07:45:49.597344", "MEAN_MOTION": 15.42452212, "ECCENTRICITY": 0.0002167, "INCLINATION": 96.9359, "RA_OF_ASC_NODE": 19.1429, "ARG_OF_PERICENTER": 129.0108, "MEAN_ANOMALY": 231.1334, "EPHEMERIS_TYPE": 0, "CLASSIFICATION_TYPE": "U", "NORAD_CAT_ID": 41771, "ELEMENT_SET_NO": 999, "REV_AT_EPOCH": 51784, "BSTAR": 0.00024044, "MEAN_MOTION_DOT": 0.00010327, "MEAN_MOTION_DDOT": 0}, "tle": {"line1": "1 41771U 16058B   25354.32349071  .00010327  00000+0  24044-3 0  9997", "line2": "2 41771  96.9359  19.1429 0002167 129.0108 231.1334 15.42452212517846"}}, "geometry": {"type": "Point", "coordinates": [40.03051156136441, -70.85654622659686]}}, {"type": "Feature", "properties": {"norad_id": 41772, "name": "SKYSAT-C5", "group": "resource", "lat": -33.56804246182163, "lon": 42.84668694849147, "alt_km": 469.3105373016342, "timestamp": "2025-12-20T16:47:35.948820+00:00", "meta": {"OBJECT_NAME": "SKYSAT-C5", "OBJECT_ID": "2016-058C", "EPOCH": "2025-12-20T02:51:02.337120", "MEAN_MOTION": 15.34000367, "ECCENTRICITY": 0.00037831, "INCLINATION": 97.0747, "RA_OF_ASC_NODE": 37.5626, "ARG_OF_PERICENTER": 257.0702, "MEAN_ANOMALY": 103.0119, "EPHEMERIS_TYPE": 0, "CLASSIFICATION_TYPE": "U", "NORAD_CAT_ID": 41772, "ELEMENT_SET_NO": 999, "REV_AT_EPOCH": 51629, "BSTAR": 0.0001953125, "MEAN_MOTION_DOT": 6.351e-05, "MEAN_MOTION_DDOT": 0}, "tle": {"line1": "1 41772U 16058C   25354.11877705  .00006351  00000+0  19531-3 0  9992", "line2": "2 41772  97.0747  37.5626 0003783 257.0702 103.0119 15.34000367516297"}}, "geometry": {"type": "Point", "coordinates": [42.84668694849147, -33.56804246182163]}}, {"type": "Feature", "properties": {"norad_id": 41773, "name": "SKYSAT-C2", "group": "resource", "lat": 68.43558352432782, "lon": 0.6813400052672305, "alt_km": 445.82528377644667, "timestamp": "2025-12-20T16:47:35.948830+00:00", "meta": {"OBJECT_NAME": "SKYSAT-C2", "OBJECT_ID": "2016-058D", "EPOCH": "2025-12-20T00:52:16.860864", "MEAN_MOTION": 15.37425568, "ECCENTRICITY": 0.00034481, "INCLINATION": 97.035, "RA_OF_ASC_NODE": 18.2542, "ARG_OF_PERICENTER": 14.0685, "MEAN_ANOMALY": 346.0656, "EPHEMERIS_TYPE": 0, "CLASSIFICATION_TYPE": "U", "NORAD_CAT_ID": 41773, "ELEMENT_SET_NO": 999, "REV_AT_EPOCH": 51748, "BSTAR": 0.0002251688, "MEAN_MOTION_DOT": 8.187e-05, "MEAN_MOTION_DDOT": 0}, "tle": {"line1": "1 41773U 16058D   25354.03630626  .00008187  00000+0  22517-3 0  9990", "line2": "2 41773  97.0350  18.2542 0003448  14.0685 346.0656 15.37425568517484"}}, "geometry": {"type": "Point", "coordinates": [0.6813400052672305, 68.43558352432782]}}, {"type": "Feature", "properties": {"norad_id": 41774, "name": "SKYSAT-C3", "group": "resource", "lat": 74.85926951333883, "lon": -125.21737130265856, "alt_km": 423.96428451885095, "timestamp": "2025-12-20T16:47:35.948840+00:00", "meta": {"OBJECT_NAME": "SKYSAT-C3", "OBJECT_ID": "2016-058E", "EPOCH": "2025-12-20T08:34:23.687040", "MEAN_MOTION": 15.44652608, "ECCENTRICITY": 0.0001932, "INCLINATION": 96.9286, "RA_OF_ASC_NODE": 27.7493, "ARG_OF_PERICENTER": 107.595, "MEAN_ANOMALY": 252.5511, "EPHEMERIS_TYPE": 0, "CLASSIFICATION_TYPE": "U", "NORAD_CAT_ID": 41774, "ELEMENT_SET_NO": 999, "REV_AT_EPOCH": 51843, "BSTAR": 0.00028414, "MEAN_MOTION_DOT": 0.00013163, "MEAN_MOTION_DDOT": 0}, "tle": {"line1": "1 41774U 16058E   25354.35721860  .00013163  00000+0  28414-3 0  9999", "line2": "2 41774  96.9286  27.7493 0001932 107.5950 252.5511 15.44652608518432"}}, "geometry": {"type": "Point", "coordinates": [-125.21737130265856, 74.85926951333883]}}]}